{
  "type": "FeatureCollection",
  "features": [
    {
      "type": "Feature",
      "properties": {
        "norad_id": 41890,
        "name": "CYGFM07",
        "group": "weather",
        "lat": -18.269648275267496,
        "lon": -76.73325058326971,
        "alt_km": 410.08147391415514,
        "timestamp": "2025-12-23T09:49:06.719347+00:00",
        "meta_object_name": "CYGFM07",
        "meta_object_id": "2016-078G",
        "meta_epoch": "2025-12-22T07:41:22.754400",
        "meta_mean_motion": 15.50386414,
        "meta_eccentricity": 0.00098473,
        "meta_inclination": 34.9484,
        "meta_ra_of_asc_node": 318.6199,
        "meta_arg_of_pericenter": 296.6593,
        "meta_mean_anomaly": 63.312,
        "meta_ephemeris_type": 0,
        "meta_classification_type": "U",
        "meta_norad_cat_id": 41890,
        "meta_element_set_no": 999,
        "meta_rev_at_epoch": 50144,
        "meta_bstar": 0.00041229816,
        "meta_mean_motion_dot": 0.00024237,
        "meta_mean_motion_ddot": 0,
        "tle_line1": "1 41890U 16078G   25356.32040225  .00024237  00000+0  41230-3 0  9993",
        "tle_line2": "2 41890  34.9484 318.6199 0009847 296.6593  63.3120 15.50386414501447"
      },
      "geometry": {
        "type": "Point",
        "coordinates": [
          -76.73325058326971,
          -18.269648275267496
        ]
      }
    },
    {
      "type": "Feature",
      "properties": {
        "norad_id": 41891,
        "name": "CYGFM03",
        "group": "weather",
        "lat": 12.610278551571444,
        "lon": 114.71608899035212,
        "alt_km": 417.55105461734365,
        "timestamp": "2025-12-23T09:49:06.719357+00:00",
        "meta_object_name": "CYGFM03",
        "meta_object_id": "2016-078H",
        "meta_epoch": "2025-12-22T22:19:25.327200",
        "meta_mean_motion": 15.50310719,
        "meta_eccentricity": 0.00095285,
        "meta_inclination": 34.9437,
        "meta_ra_of_asc_node": 316.5448,
        "meta_arg_of_pericenter": 289.6347,
        "meta_mean_anomaly": 70.3347,
        "meta_ephemeris_type": 0,
        "meta_classification_type": "U",
        "meta_norad_cat_id": 41891,
        "meta_element_set_no": 999,
        "meta_rev_at_epoch": 50151,
        "meta_bstar": 0.00040606082,
        "meta_mean_motion_dot": 0.00023801,
        "meta_mean_motion_ddot": 0,
        "tle_line1": "1 41891U 16078H   25356.93015425  .00023801  00000+0  40606-3 0  9997",
        "tle_line2": "2 41891  34.9437 316.5448 0009528 289.6347  70.3347 15.50310719501517"
      },
      "geometry": {
        "type": "Point",
        "coordinates": [
          114.71608899035212,
          12.610278551571444
        ]
      }
    },
    {
      "type": "Feature",
      "properties": {
        "norad_id": 43010,
        "name": "FENGYUN 3D",
        "group": "weather",
        "lat": 32.603419336642766,
        "lon": 149.6907948746633,
        "alt_km": 823.3680641149631,
        "timestamp": "2025-12-23T09:49:06.719368+00:00",
        "meta_object_name": "FENGYUN 3D",
        "meta_object_id": "2017-072A",
        "meta_epoch": "2025-12-22T22:58:49.484352",
        "meta_mean_motion": 14.19687363,
        "meta_eccentricity": 0.00014355,
        "meta_inclination": 98.9905,
        "meta_ra_of_asc_node": 323.4207,
        "meta_arg_of_pericenter": 153.4136,
        "meta_mean_anomaly": 206.7114,
        "meta_ephemeris_type": 0,
        "meta_classification_type": "U",
        "meta_norad_cat_id": 43010,
        "meta_element_set_no": 999,
        "meta_rev_at_epoch": 41998,
        "meta_bstar": 0.00011366705,
        "meta_mean_motion_dot": 1.94e-06,
        "meta_mean_motion_ddot": 0,
        "tle_line1": "1 43010U 17072A   25356.95751718  .00000194  00000+0  11367-3 0  9993",
        "tle_line2": "2 43010  98.9905 323.4207 0001435 153.4136 206.7114 14.19687363419987"
      },
      "geometry": {
        "type": "Point",
        "coordinates": [
          149.6907948746633,
          32.603419336642766
        ]
      }
    },
    {
      "type": "Feature",
      "properties": {
        "norad_id": 43013,
        "name": "NOAA 20 (JPSS-1)",
        "group": "weather",
        "lat": -65.63434890071349,
        "lon": -46.50254513535735,
        "alt_km": 835.2788756061118,
        "timestamp": "2025-12-23T09:49:06.719380+00:00",
        "meta_object_name": "NOAA 20 (JPSS-1)",
        "meta_object_id": "2017-073A",
        "meta_epoch": "2025-12-22T20:36:04.737024",
        "meta_mean_motion": 14.19528241,
        "meta_eccentricity": 0.00021062,
        "meta_inclination": 98.7613,
        "meta_ra_of_asc_node": 293.045,
        "meta_arg_of_pericenter": 72.7351,
        "meta_mean_anomaly": 287.4056,
        "meta_ephemeris_type": 0,
        "meta_classification_type": "U",
        "meta_norad_cat_id": 43013,
        "meta_element_set_no": 999,
        "meta_rev_at_epoch": 41945,
        "meta_bstar": 5.8491465e-05,
        "meta_mean_motion_dot": 7.9e-07,
        "meta_mean_motion_ddot": 0,
        "tle_line1": "1 43013U 17073A   25356.85838816  .00000079  00000+0  58491-4 0  9993",
        "tle_line2": "2 43013  98.7613 293.0450 0002106  72.7351 287.4056 14.19528241419456"
      },
      "geometry": {
        "type": "Point",
        "coordinates": [
          -46.50254513535735,
          -65.63434890071349
        ]
      }
    },
    {
      "type": "Feature",
      "properties": {
        "norad_id": 43226,
        "name": "GOES 17",
        "group": "weather",
        "lat": 0.437233366685275,
        "lon": 149.93935405584511,
        "alt_km": 35793.84380872871,
        "timestamp": "2025-12-23T09:49:06.719393+00:00",
        "meta_object_name": "GOES 17",
        "meta_object_id": "2018-022A",
        "meta_epoch": "2025-12-22T21:18:00.186624",
        "meta_mean_motion": 1.00272578,
        "meta_eccentricity": 0.00029857,
        "meta_inclination": 0.4822,
        "meta_ra_of_asc_node": 89.0945,
        "meta_arg_of_pericenter": 190.2025,
        "meta_mean_anomaly": 42.3831,
        "meta_ephemeris_type": 0,
        "meta_classification_type": "U",
        "meta_norad_cat_id": 43226,
        "meta_element_set_no": 999,
        "meta_rev_at_epoch": 2865,
        "meta_bstar": 0,
        "meta_mean_motion_dot": -1.61e-06,
        "meta_mean_motion_ddot": 0,
        "tle_line1": "1 43226U 18022A   25356.88750216 -.00000161  00000+0  00000+0 0  9995",
        "tle_line2": "2 43226   0.4822  89.0945 0002985 190.2025  42.3831  1.00272578 28657"
      },
      "geometry": {
        "type": "Point",
        "coordinates": [
          149.93935405584511,
          0.437233366685275
        ]
      }
    },
    {
      "type": "Feature",
      "properties": {
        "norad_id": 43491,
        "name": "FENGYUN 2H",
        "group": "weather",
        "lat": -2.1958213629239336,
        "lon": -41.18171243557477,
        "alt_km": 35783.35587450255,
        "timestamp": "2025-12-23T09:49:06.719413+00:00",
        "meta_object_name": "FENGYUN 2H",
        "meta_object_id": "2018-050A",
        "meta_epoch": "2025-12-22T22:06:10.573344",
        "meta_mean_motion": 1.00270917,
        "meta_eccentricity": 0.00023746,
        "meta_inclination": 2.5756,
        "meta_ra_of_asc_node": 81.2229,
        "meta_arg_of_pericenter": 166.3922,
        "meta_mean_anomaly": 254.9933,
        "meta_ephemeris_type": 0,
        "meta_classification_type": "U",
        "meta_norad_cat_id": 43491,
        "meta_element_set_no": 999,
        "meta_rev_at_epoch": 2767,
        "meta_bstar": 0,
        "meta_mean_motion_dot": -1.1e-06,
        "meta_mean_motion_ddot": 0,
        "tle_line1": "1 43491U 18050A   25356.92095571 -.00000110  00000+0  00000+0 0  9995",
        "tle_line2": "2 43491   2.5756  81.2229 0002374 166.3922 254.9933  1.00270917 27671"
      },
      "geometry": {
        "type": "Point",
        "coordinates": [
          -41.18171243557477,
          -2.1958213629239336
        ]
      }
    },
    {
      "type": "Feature",
      "properties": {
        "norad_id": 43689,
        "name": "METOP-C",
        "group": "weather",
        "lat": 30.508716698619356,
        "lon": -119.81425677582432,
        "alt_km": 819.0049811869931,
        "timestamp": "2025-12-23T09:49:06.719425+00:00",
        "meta_object_name": "METOP-C",
        "meta_object_id": "2018-087A",
        "meta_epoch": "2025-12-22T21:17:40.750080",
        "meta_mean_motion": 14.2148817,
        "meta_eccentricity": 7.522e-05,
        "meta_inclination": 98.6914,
        "meta_ra_of_asc_node": 54.5007,
        "meta_arg_of_pericenter": 20.3531,
        "meta_mean_anomaly": 339.7676,
        "meta_ephemeris_type": 0,
        "meta_classification_type": "U",
        "meta_norad_cat_id": 43689,
        "meta_element_set_no": 999,
        "meta_rev_at_epoch": 36978,
        "meta_bstar": 8.4371738e-05,
        "meta_mean_motion_dot": 1.41e-06,
        "meta_mean_motion_ddot": 0,
        "tle_line1": "1 43689U 18087A   25356.88727720  .00000141  00000+0  84372-4 0  9999",
        "tle_line2": "2 43689  98.6914  54.5007 0000752  20.3531 339.7676 14.21488170369788"
      },
      "geometry": {
        "type": "Point",
        "coordinates": [
          -119.81425677582432,
          30.508716698619356
        ]
      }
    }
  ]
}